ONEWEB-0578             
1 56067U 23043X   26002.78232306  .00000072  00000+0  14240-3 0  9999
2 56067  87.9227 276.9668 0001523  85.5654 274.5654 13.21826328136389
ONEWEB-0579             
1 56068U 23043Y   26002.77242320  .00000051  00000+0  92757-4 0  9993
2 56068  87.9228 276.9570 0001660  67.3526 292.7784 13.21823960136397
ONEWEB-0581             
1 56069U 23043Z   26002.78088043  .00000015  00000+0  52868-5 0  9995
2 56069  87.9044 261.7177 0001953  72.3082 287.8262 13.16593264137197
ONEWEB-0609             
1 56070U 23043AA  26002.83512883 -.00000104  00000+0 -30921-3 0  9992
2 56070  87.9010 292.2180 0001614  73.5744 286.5563 13.15548771134691
ONEWEB-0613             
1 56071U 23043AB  26002.83037162 -.00000088  00000+0 -26720-3 0  9998
2 56071  87.9007 292.2304 0001611  66.6299 293.5001 13.15547851134694
ONEWEB-0630             
1 56072U 23043AC  26002.82561579 -.00000093  00000+0 -28193-3 0  9994
2 56072  87.9004 292.2021 0001646  63.8686 296.2613 13.15547604134689
ONEWEB-0632             
1 56073U 23043AD  26002.82086259 -.00000057  00000+0 -18603-3 0  9997
2 56073  87.9003 292.2211 0001851  75.1598 284.9737 13.15549942134684
ONEWEB-0633             
1 56074U 23043AE  26002.81452715 -.00000049  00000+0 -16401-3 0  9996
2 56074  87.9008 292.1853 0001447  62.8844 297.2434 13.15548353134663
